LUDI TANCE 1-01A (L-SA*)
1 51284U 22007A   26173.82820141  .00000437  00000+0  52961-4 0  9996
2 51284  97.8104 181.1679 0001599  89.9263 270.2137 14.88412424239313
LUDI TANCE 1-01B (L-SA*)
1 51822U 22018A   26173.45841148  .00000366  00000+0  45370-4 0  9992
2 51822  97.8109 180.8004 0001622  92.1922 267.9481 14.88423263234491
2022-023F               
1 51951U 22023F   26173.87592948  .00010802  00000+0  43097-3 0  9997
2 51951  63.4445 254.1414 0131072 342.2296  17.4253 15.18005013238573
MERIDIAN 10             
1 52145U 22030A   26172.95474317  .00000184  00000+0  00000+0 0  9993
2 52145  62.6781 140.2783 6785281 272.8510  17.6364  2.00613115 31129
OMNI-L1                 
1 52157U 22033A   26173.44255598  .00001352  00000+0  17380-3 0  9993
2 52157  97.8397 252.5178 0003831 264.3278  95.7499 14.82764266228238
ENMAP                   
1 52159U 22033C   26173.79604609  .00000542  00000+0  88125-4 0  9990
2 52159  97.9787 255.9668 0001394  87.0035 273.1333 14.74992166227486
ARCSAT-1                
1 52161U 22033E   26173.72887525  .00009495  00000+0  14977-3 0  9995
2 52161  97.2749 266.0842 0005532 160.7388 199.4076 15.53732921236567
GLOBAL-18               
1 52196U 22034B   26173.42527622  .00014343  00000+0  29289-3 0  9990
2 52196  52.9807 231.6012 0003341 306.3248  53.7449 15.46452979237778
GAOFEN-3 03             
1 52200U 22035A   26173.84929431 -.00000122  00000+0 -23860-4 0  9999
2 52200  98.4067 182.3477 0001416 100.8691 259.2658 14.42215040221661
DAQI-1                  
1 52257U 22039A   26173.84272836  .00000067  00000+0  24589-4 0  9990
2 52257  98.1480 112.5777 0002418 225.8091 134.2909 14.57679888222765
BRO-6                   
1 52422U 22047AE  26173.81629363  .00029358  00000+0  50821-3 0  9992
2 52422  97.3395 264.9804 0004558  60.3331 299.8374 15.50877491232022
JILIN-1 GAOFEN 3D27     
1 52444U 22048B   26173.80638827  .00110827  00000+0  69238-3 0  9995
2 52444  97.5713 288.2559 0001483 319.4864  40.6291 15.76540129230369
JILIN-1 GAOFEN 3D28     
1 52445U 22048C   26173.73108620  .00132065  00000+0  71164-3 0  9990
2 52445  97.5646 288.3468 0001009 251.4606 108.6551 15.79806942230408
VIGORIDE-3              
1 52760U 22057AE  26173.65457730  .00004307  00000+0  16370-3 0  9995
2 52760  97.6609 313.7740 0009740 103.9827 256.2495 15.27327052225998
ION SCV-006             
1 52761U 22057AF  26173.79854075  .00010376  00000+0  21769-3 0  9995
2 52761  97.6107 322.6900 0018293  94.8035 265.5303 15.45406649226982
SHERPA-AC1              
1 52763U 22057AH  26173.66840241  .00005727  00000+0  16397-3 0  9998
2 52763  97.6693 323.1235 0008846  77.1817 283.0414 15.36328174226542
OMNI-L2                 
1 52771U 22057AR  26173.18851455  .00000937  00000+0  12594-3 0  9996
2 52771  97.4713 235.2109 0005392 317.4638  42.6158 14.81380866221138
STEP CUBE LAB-II        
1 52897U 22065D   26173.81137396  .00000728  00000+0  15033-3 0  9994
2 52897  98.2239 317.6961 0008893  16.2961 343.8525 14.63310942212325
RANDEV                  
1 52898U 22065E   26173.81096341  .00000663  00000+0  13671-3 0  9993
2 52898  98.2225 318.0494 0008260  17.0432 343.1046 14.63698346212077
SNUGLITE-II             
1 52899U 22065F   26173.63412238  .00000637  00000+0  12984-3 0  9998
2 52899  98.2209 318.4550 0007629  17.0111 343.1346 14.64355421211795
MIMAN                   
1 52900U 22065G   26173.66096809  .00000354  00000+0  80337-4 0  9990
2 52900  98.2268 316.1158 0007850  18.9494 341.1997 14.61848139211242
STARLINK-4362           
1 53043U 22077A   26173.44937447 -.00002506  00000+0 -16971-3 0  9995
2 53043  97.3296 352.1363 0002466 116.1844 243.9638 15.05670391216673
LARES-2                 
1 53105U 22080A   26171.29947139 -.00000019  00000+0  00000+0 0  9996
2 53105  70.1607 304.2616 0005374 334.2927  25.7338  6.38965102 91860
GREENCUBE (IO-117)      
1 53109U 22080E   26173.32029992 -.00000003  00000+0  00000+0 0  9997
2 53109  70.1445 296.4598 0008935 288.3983  71.5705  6.42583197 92393
STARLINK-4410           
1 53204U 22084R   26173.83335648 -.00003867  00000+0 -11603-3 0  9998
2 53204  97.6003 235.0657 0001315  75.3040 305.4997 15.33793392  5870
COSMOS 2558             
1 53323U 22089A   26171.38576041  .00098710  00000+0  63943-3 0  9990
2 53323  97.2251 275.5817 0001456 235.4551 124.6578 15.75746772218331
TECMS                   
1 53346U 22090A   26173.81521681  .00002802  00000+0  12776-3 0  9992
2 53346  97.3136 241.7652 0004042 157.6715 202.4698 15.21438283215669
