OBJECT_NAME,OBJECT_ID,EPOCH,MEAN_MOTION,ECCENTRICITY,INCLINATION,RA_OF_ASC_NODE,ARG_OF_PERICENTER,MEAN_ANOMALY,EPHEMERIS_TYPE,CLASSIFICATION_TYPE,NORAD_CAT_ID,ELEMENT_SET_NO,REV_AT_EPOCH,BSTAR,MEAN_MOTION_DOT,MEAN_MOTION_DDOT
LUDI TANCE 1-01A (L-SAR 01A),2022-007A,2026-06-22T19:52:36.601824,14.88412424,.00015996,97.8104,181.1679,89.9263,270.2137,0,U,51284,999,23931,.52960501E-4,.437E-5,0
LUDI TANCE 1-01B (L-SAR 01B),2022-018A,2026-06-22T11:00:06.751872,14.88423263,.00016224,97.8109,180.8004,92.1922,267.9481,0,U,51822,999,23449,.45370445E-4,.366E-5,0
2022-023F,2022-023F,2026-06-22T21:01:20.307072,15.18005013,.01310723,63.4445,254.1414,342.2296,17.4253,0,U,51951,999,23857,.43096625E-3,.10802E-3,0
MERIDIAN 10,2022-030A,2026-06-21T22:54:49.809888,2.00613115,.67852814,62.6781,140.2783,272.8510,17.6364,0,U,52145,999,3112,0,.184E-5,0
OMNI-L1,2022-033A,2026-06-22T10:37:16.836672,14.82764266,.00038319,97.8397,252.5178,264.3278,95.7499,0,U,52157,999,22823,.17379971E-3,.1352E-4,0
ENMAP,2022-033C,2026-06-22T19:06:18.382176,14.74992166,.00013943,97.9787,255.9668,87.0035,273.1333,0,U,52159,999,22748,.88124536E-4,.542E-5,0
ARCSAT-1,2022-033E,2026-06-22T17:29:34.821600,15.53732921,.00055324,97.2749,266.0842,160.7388,199.4076,0,U,52161,999,23656,.14977468E-3,.9495E-4,0
GLOBAL-18,2022-034B,2026-06-22T10:12:23.865408,15.46452979,.00033414,52.9807,231.6012,306.3248,53.7449,0,U,52196,999,23777,.29289176E-3,.14343E-3,0
GAOFEN-3 03,2022-035A,2026-06-22T20:22:59.028384,14.42215040,.00014166,98.4067,182.3477,100.8691,259.2658,0,U,52200,999,22166,-.2385956E-4,-.122E-5,0
DAQI-1,2022-039A,2026-06-22T20:13:31.730304,14.57679888,.00024184,98.1480,112.5777,225.8091,134.2909,0,U,52257,999,22276,.24588614E-4,.67E-6,0
BRO-6,2022-047AE,2026-06-22T19:35:27.769632,15.50877491,.00045588,97.3395,264.9804,60.3331,299.8374,0,U,52422,999,23202,.50821186E-3,.29358E-3,0
JILIN-1 GAOFEN 3D27,2022-048B,2026-06-22T19:21:11.946528,15.76540129,.00014834,97.5713,288.2559,319.4864,40.6291,0,U,52444,999,23036,.69238208E-3,.110827E-2,0
JILIN-1 GAOFEN 3D28,2022-048C,2026-06-22T17:32:45.847680,15.79806942,.00010093,97.5646,288.3468,251.4606,108.6551,0,U,52445,999,23040,.71164155E-3,.132065E-2,0
VIGORIDE-3,2022-057AE,2026-06-22T15:42:35.478720,15.27327052,.000974,97.6609,313.7740,103.9827,256.2495,0,U,52760,999,22599,.16369902E-3,.4307E-4,0
ION SCV-006,2022-057AF,2026-06-22T19:09:53.920800,15.45406649,.00182935,97.6107,322.6900,94.8035,265.5303,0,U,52761,999,22698,.2176935E-3,.10376E-3,0
SHERPA-AC1,2022-057AH,2026-06-22T16:02:29.968224,15.36328174,.00088464,97.6693,323.1235,77.1817,283.0414,0,U,52763,999,22654,.16397037E-3,.5727E-4,0
OMNI-L2,2022-057AR,2026-06-22T04:31:27.657120,14.81380866,.0005392,97.4713,235.2109,317.4638,42.6158,0,U,52771,999,22113,.12593744E-3,.937E-5,0
STEP CUBE LAB-II,2022-065D,2026-06-22T19:28:22.710144,14.63310942,.00088931,98.2239,317.6961,16.2961,343.8525,0,U,52897,999,21232,.15032508E-3,.728E-5,0
RANDEV,2022-065E,2026-06-22T19:27:47.238624,14.63698346,.00082602,98.2225,318.0494,17.0432,343.1046,0,U,52898,999,21207,.13670889E-3,.663E-5,0
SNUGLITE-II,2022-065F,2026-06-22T15:13:08.173632,14.64355421,.00076299,98.2209,318.4550,17.0111,343.1346,0,U,52899,999,21179,.12984351E-3,.637E-5,0
MIMAN,2022-065G,2026-06-22T15:51:47.642976,14.61848139,.00078501,98.2268,316.1158,18.9494,341.1997,0,U,52900,999,21124,.80337074E-4,.354E-5,0
STARLINK-4362,2022-077A,2026-06-22T10:47:05.954208,15.05670391,.00024667,97.3296,352.1363,116.1844,243.9638,0,U,53043,999,21667,-.16970849E-3,-.2506E-4,0
LARES-2,2022-080A,2026-06-20T07:11:14.328096,6.38965102,.00053747,70.1607,304.2616,334.2927,25.7338,0,U,53105,999,9186,0,-.19E-6,0
GREENCUBE (IO-117),2022-080E,2026-06-22T07:41:13.913088,6.42583197,.00089351,70.1445,296.4598,288.3983,71.5705,0,U,53109,999,9239,0,-.3E-7,0
STARLINK-4410,2022-084R,2026-06-22T20:00:01.999872,15.33793392,.00013159,97.6003,235.0657,75.3040,305.4997,0,U,53204,999,587,-.11603036E-3,-.3867E-4,0
COSMOS 2558,2022-089A,2026-06-20T09:15:29.699424,15.75746772,.0001456,97.2251,275.5817,235.4551,124.6578,0,U,53323,999,21833,.63943E-3,.9871E-3,0
TECMS,2022-090A,2026-06-22T19:33:54.732384,15.21438283,.00040425,97.3136,241.7652,157.6715,202.4698,0,U,53346,999,21566,.12775723E-3,.2802E-4,0
